[
    {
        "Altitude(m)": 704127.3226956172,
        "Argument of Periapsis(deg)": 0.005695060593313534,
        "Eccentricity": 0.0,
        "Inclination(deg)": 45.0,
        "Latitude(deg)": 29.12165086537941,
        "Longitude(deg)": -144.0199221507068,
        "Mean Anomaly(deg)": 136.6757083237404,
        "RAAN(deg)": 169.99462402927088,
        "Satellite Name": "Constellation 1 756",
        "Satellite Number": 756,
        "Semi-Major Axis(m)": 7083131.272910544,
        "Time(s)": 95
    },
    {
        "Altitude(m)": 704121.7120903224,
        "Argument of Periapsis(deg)": 0.00575500859955894,
        "Eccentricity": 0.0,
        "Inclination(deg)": 45.0,
        "Latitude(deg)": 29.08573343022625,
        "Longitude(deg)": -143.96796196921264,
        "Mean Anomaly(deg)": 136.73640946399033,
        "RAAN(deg)": 169.99456744010533,
        "Satellite Name": "Constellation 1 756",
        "Satellite Number": 756,
        "Semi-Major Axis(m)": 7083131.272910544,
        "Time(s)": 96
    },
    {
        "Altitude(m)": 704116.1068052418,
        "Argument of Periapsis(deg)": 0.005814956605804345,
        "Eccentricity": 0.0,
        "Inclination(deg)": 45.0,
        "Latitude(deg)": 29.049792399580983,
        "Longitude(deg)": -143.91604050172072,
        "Mean Anomaly(deg)": 136.7971106042402,
        "RAAN(deg)": 169.99451085093978,
        "Satellite Name": "Constellation 1 756",
        "Satellite Number": 756,
        "Semi-Major Axis(m)": 7083131.272910544,
        "Time(s)": 97
    },
    {
        "Altitude(m)": 704110.5068795201,
        "Argument of Periapsis(deg)": 0.00587490461204975,
        "Eccentricity": 0.0,
        "Inclination(deg)": 45.0,
        "Latitude(deg)": 29.0138278239535,
        "Longitude(deg)": -143.86415785739328,
        "Mean Anomaly(deg)": 136.8578117444901,
        "RAAN(deg)": 169.9944542617742,
        "Satellite Name": "Constellation 1 756",
        "Satellite Number": 756,
        "Semi-Major Axis(m)": 7083131.272910544,
        "Time(s)": 98
    },
    {
        "Altitude(m)": 704104.912352272,
        "Argument of Periapsis(deg)": 0.005934852618295156,
        "Eccentricity": 0.0,
        "Inclination(deg)": 45.0,
        "Latitude(deg)": 28.977839753781865,
        "Longitude(deg)": -143.8123139772541,
        "Mean Anomaly(deg)": 136.91851288473995,
        "RAAN(deg)": 169.99439767260864,
        "Satellite Name": "Constellation 1 756",
        "Satellite Number": 756,
        "Semi-Major Axis(m)": 7083131.272910544,
        "Time(s)": 99
    },
    {
        "Altitude(m)": 704099.3232626142,
        "Argument of Periapsis(deg)": 0.005994800624540561,
        "Eccentricity": 0.0,
        "Inclination(deg)": 45.0,
        "Latitude(deg)": 28.941828239432287,
        "Longitude(deg)": -143.76050880228607,
        "Mean Anomaly(deg)": 136.97921402498991,
        "RAAN(deg)": 169.99434108344303,
        "Satellite Name": "Constellation 1 756",
        "Satellite Number": 756,
        "Semi-Major Axis(m)": 7083131.272910544,
        "Time(s)": 100
    },
    {
        "Altitude(m)": 704093.7396496491,
        "Argument of Periapsis(deg)": 0.006054748630785968,
        "Eccentricity": 0.0,
        "Inclination(deg)": 45.0,
        "Latitude(deg)": 28.905793331199582,
        "Longitude(deg)": -143.70874227343174,
        "Mean Anomaly(deg)": 137.03991516523982,
        "RAAN(deg)": 169.99428449427748,
        "Satellite Name": "Constellation 1 756",
        "Satellite Number": 756,
        "Semi-Major Axis(m)": 7083131.272910544,
        "Time(s)": 101
    },
    {
        "Altitude(m)": 704088.1615524695,
        "Argument of Periapsis(deg)": 0.006114696637031373,
        "Eccentricity": 0.0,
        "Inclination(deg)": 45.0,
        "Latitude(deg)": 28.86973507930693,
        "Longitude(deg)": -143.65701433159404,
        "Mean Anomaly(deg)": 137.10061630548964,
        "RAAN(deg)": 169.99422790511193,
        "Satellite Name": "Constellation 1 756",
        "Satellite Number": 756,
        "Semi-Major Axis(m)": 7083131.272910544,
        "Time(s)": 102
    },
    {
        "Altitude(m)": 704082.5890101565,
        "Argument of Periapsis(deg)": 0.006174644643276778,
        "Eccentricity": 0.0,
        "Inclination(deg)": 45.0,
        "Latitude(deg)": 28.833653533905935,
        "Longitude(deg)": -143.6053249176366,
        "Mean Anomaly(deg)": 137.16131744573966,
        "RAAN(deg)": 169.99417131594635,
        "Satellite Name": "Constellation 1 756",
        "Satellite Number": 756,
        "Semi-Major Axis(m)": 7083131.272910544,
        "Time(s)": 103
    },
    {
        "Altitude(m)": 704077.0220617824,
        "Argument of Periapsis(deg)": 0.006234592649522184,
        "Eccentricity": 0.0,
        "Inclination(deg)": 45.0,
        "Latitude(deg)": 28.797548745077265,
        "Longitude(deg)": -143.55367414048177,
        "Mean Anomaly(deg)": 137.2220185859895,
        "RAAN(deg)": 169.9941147267808,
        "Satellite Name": "Constellation 1 756",
        "Satellite Number": 756,
        "Semi-Major Axis(m)": 7083131.272910544,
        "Time(s)": 104
    },
    {
        "Altitude(m)": 704071.4607464077,
        "Argument of Periapsis(deg)": 0.00629454065576759,
        "Eccentricity": 0.0,
        "Inclination(deg)": 45.0,
        "Latitude(deg)": 28.76142076282913,
        "Longitude(deg)": -143.5020616047226,
        "Mean Anomaly(deg)": 137.28271972623943,
        "RAAN(deg)": 169.9940581376152,
        "Satellite Name": "Constellation 1 756",
        "Satellite Number": 756,
        "Semi-Major Axis(m)": 7083131.272910544,
        "Time(s)": 105
    },
    {
        "Altitude(m)": 704065.9051030779,
        "Argument of Periapsis(deg)": 0.006354488662012995,
        "Eccentricity": 0.0,
        "Inclination(deg)": 45.0,
        "Latitude(deg)": 28.725269637099544,
        "Longitude(deg)": -143.4504874192061,
        "Mean Anomaly(deg)": 137.3434208664893,
        "RAAN(deg)": 169.99400154844963,
        "Satellite Name": "Constellation 1 756",
        "Satellite Number": 756,
        "Semi-Major Axis(m)": 7083131.272910544,
        "Time(s)": 106
    },
    {
        "Altitude(m)": 704060.3551708348,
        "Argument of Periapsis(deg)": 0.006414436668258401,
        "Eccentricity": 0.0,
        "Inclination(deg)": 45.0,
        "Latitude(deg)": 28.68909541775458,
        "Longitude(deg)": -143.39895152464481,
        "Mean Anomaly(deg)": 137.40412200673924,
        "RAAN(deg)": 169.99394495928408,
        "Satellite Name": "Constellation 1 756",
        "Satellite Number": 756,
        "Semi-Major Axis(m)": 7083131.272910544,
        "Time(s)": 107
    },
    {
        "Altitude(m)": 704054.8109886991,
        "Argument of Periapsis(deg)": 0.0064743846745038075,
        "Eccentricity": 0.0,
        "Inclination(deg)": 45.0,
        "Latitude(deg)": 28.652898154589565,
        "Longitude(deg)": -143.34745386171568,
        "Mean Anomaly(deg)": 137.4648231469891,
        "RAAN(deg)": 169.9938883701185,
        "Satellite Name": "Constellation 1 756",
        "Satellite Number": 756,
        "Semi-Major Axis(m)": 7083131.272910544,
        "Time(s)": 108
    },
    {
        "Altitude(m)": 704049.2725956894,
        "Argument of Periapsis(deg)": 0.0065343326807492125,
        "Eccentricity": 0.0,
        "Inclination(deg)": 45.0,
        "Latitude(deg)": 28.616677897328238,
        "Longitude(deg)": -143.29599437105938,
        "Mean Anomaly(deg)": 137.52552428723897,
        "RAAN(deg)": 169.99383178095292,
        "Satellite Name": "Constellation 1 756",
        "Satellite Number": 756,
        "Semi-Major Axis(m)": 7083131.272910544,
        "Time(s)": 109
    },
    {
        "Altitude(m)": 704043.740030807,
        "Argument of Periapsis(deg)": 0.0065942806869946176,
        "Eccentricity": 0.0,
        "Inclination(deg)": 45.0,
        "Latitude(deg)": 28.58043469562346,
        "Longitude(deg)": -143.24457299328157,
        "Mean Anomaly(deg)": 137.5862254274889,
        "RAAN(deg)": 169.99377519178736,
        "Satellite Name": "Constellation 1 756",
        "Satellite Number": 756,
        "Semi-Major Axis(m)": 7083131.272910544,
        "Time(s)": 110
    },
    {
        "Altitude(m)": 704038.2133330372,
        "Argument of Periapsis(deg)": 0.006654228693240024,
        "Eccentricity": 0.0,
        "Inclination(deg)": 45.0,
        "Latitude(deg)": 28.544168599057432,
        "Longitude(deg)": -143.19318983705043,
        "Mean Anomaly(deg)": 137.64692656773883,
        "RAAN(deg)": 169.9937186026218,
        "Satellite Name": "Constellation 1 756",
        "Satellite Number": 756,
        "Semi-Major Axis(m)": 7083131.272910544,
        "Time(s)": 111
    },
    {
        "Altitude(m)": 704032.6925413632,
        "Argument of Periapsis(deg)": 0.006714176699485429,
        "Eccentricity": 0.0,
        "Inclination(deg)": 45.0,
        "Latitude(deg)": 28.507879657140425,
        "Longitude(deg)": -143.14184450670902,
        "Mean Anomaly(deg)": 137.70762770798865,
        "RAAN(deg)": 169.99366201345623,
        "Satellite Name": "Constellation 1 756",
        "Satellite Number": 756,
        "Semi-Major Axis(m)": 7083131.272910544,
        "Time(s)": 112
    },
    {
        "Altitude(m)": 704027.1776947435,
        "Argument of Periapsis(deg)": 0.006774124705730835,
        "Eccentricity": 0.0,
        "Inclination(deg)": 45.0,
        "Latitude(deg)": 28.471567919312516,
        "Longitude(deg)": -143.09053711085755,
        "Mean Anomaly(deg)": 137.7683288482386,
        "RAAN(deg)": 169.99360542429068,
        "Satellite Name": "Constellation 1 756",
        "Satellite Number": 756,
        "Semi-Major Axis(m)": 7083131.272910544,
        "Time(s)": 113
    }
]